[{"OBJECT_NAME":"STARLINK-34926","OBJECT_ID":"2025-175W","EPOCH":"2026-02-05T15:31:42.432960","MEAN_MOTION":15.05653975,"ECCENTRICITY":0.0002696,"INCLINATION":97.6022,"RA_OF_ASC_NODE":271.15,"ARG_OF_PERICENTER":85.5742,"MEAN_ANOMALY":274.5793,"EPHEMERIS_TYPE":0,"CLASSIFICATION_TYPE":"U","NORAD_CAT_ID":65194,"ELEMENT_SET_NO":999,"REV_AT_EPOCH":2779,"BSTAR":0.00042308,"MEAN_MOTION_DOT":6.05e-5,"MEAN_MOTION_DDOT":0},{"OBJECT_NAME":"STARLINK-34928","OBJECT_ID":"2025-175X","EPOCH":"2026-02-05T15:35:41.570880","MEAN_MOTION":15.05658014,"ECCENTRICITY":0.0003001,"INCLINATION":97.6017,"RA_OF_ASC_NODE":271.1463,"ARG_OF_PERICENTER":73.7909,"MEAN_ANOMALY":286.3648,"EPHEMERIS_TYPE":0,"CLASSIFICATION_TYPE":"U","NORAD_CAT_ID":65195,"ELEMENT_SET_NO":999,"REV_AT_EPOCH":2782,"BSTAR":0.00056506,"MEAN_MOTION_DOT":8.104e-5,"MEAN_MOTION_DDOT":0},{"OBJECT_NAME":"STARLINK-34927","OBJECT_ID":"2025-175Y","EPOCH":"2026-02-05T15:43:41.476224","MEAN_MOTION":15.05610092,"ECCENTRICITY":0.0002274,"INCLINATION":97.6018,"RA_OF_ASC_NODE":271.1384,"ARG_OF_PERICENTER":92.3705,"MEAN_ANOMALY":267.7782,"EPHEMERIS_TYPE":0,"CLASSIFICATION_TYPE":"U","NORAD_CAT_ID":65196,"ELEMENT_SET_NO":999,"REV_AT_EPOCH":2782,"BSTAR":-0.0005969,"MEAN_MOTION_DOT":-8.654e-5,"MEAN_MOTION_DDOT":0},{"OBJECT_NAME":"STARLINK-34952","OBJECT_ID":"2025-175Z","EPOCH":"2026-02-05T15:39:40.916160","MEAN_MOTION":15.05655617,"ECCENTRICITY":0.000308,"INCLINATION":97.6023,"RA_OF_ASC_NODE":271.1424,"ARG_OF_PERICENTER":84.1395,"MEAN_ANOMALY":276.0182,"EPHEMERIS_TYPE":0,"CLASSIFICATION_TYPE":"U","NORAD_CAT_ID":65197,"ELEMENT_SET_NO":999,"REV_AT_EPOCH":2782,"BSTAR":0.00037051,"MEAN_MOTION_DOT":5.29e-5,"MEAN_MOTION_DDOT":0},{"OBJECT_NAME":"STARLINK-34981","OBJECT_ID":"2025-176A","EPOCH":"2026-02-05T18:35:40.071840","MEAN_MOTION":15.30246033,"ECCENTRICITY":0.0001696,"INCLINATION":53.1587,"RA_OF_ASC_NODE":303.8397,"ARG_OF_PERICENTER":105.1445,"MEAN_ANOMALY":254.9743,"EPHEMERIS_TYPE":0,"CLASSIFICATION_TYPE":"U","NORAD_CAT_ID":65198,"ELEMENT_SET_NO":999,"REV_AT_EPOCH":2819,"BSTAR":0.0016203,"MEAN_MOTION_DOT":0.00048008,"MEAN_MOTION_DDOT":0},{"OBJECT_NAME":"STARLINK-34821","OBJECT_ID":"2025-176B","EPOCH":"2026-02-05T18:19:32.816064","MEAN_MOTION":15.30245881,"ECCENTRICITY":0.0001803,"INCLINATION":53.1571,"RA_OF_ASC_NODE":300.9358,"ARG_OF_PERICENTER":113.0597,"MEAN_ANOMALY":247.0594,"EPHEMERIS_TYPE":0,"CLASSIFICATION_TYPE":"U","NORAD_CAT_ID":65199,"ELEMENT_SET_NO":999,"REV_AT_EPOCH":2817,"BSTAR":0.0012777,"MEAN_MOTION_DOT":0.00037728,"MEAN_MOTION_DDOT":0},{"OBJECT_NAME":"STARLINK-34865","OBJECT_ID":"2025-176C","EPOCH":"2026-02-05T17:47:48.172992","MEAN_MOTION":15.3024338,"ECCENTRICITY":0.0001387,"INCLINATION":53.16,"RA_OF_ASC_NODE":301.5122,"ARG_OF_PERICENTER":98.9976,"MEAN_ANOMALY":261.1182,"EPHEMERIS_TYPE":0,"CLASSIFICATION_TYPE":"U","NORAD_CAT_ID":65200,"ELEMENT_SET_NO":999,"REV_AT_EPOCH":2822,"BSTAR":0.001657,"MEAN_MOTION_DOT":0.00049107,"MEAN_MOTION_DDOT":0},{"OBJECT_NAME":"STARLINK-34843","OBJECT_ID":"2025-176D","EPOCH":"2026-02-05T17:15:53.286336","MEAN_MOTION":15.30236057,"ECCENTRICITY":0.0001104,"INCLINATION":53.1603,"RA_OF_ASC_NODE":301.3699,"ARG_OF_PERICENTER":85.9145,"MEAN_ANOMALY":274.1982,"EPHEMERIS_TYPE":0,"CLASSIFICATION_TYPE":"U","NORAD_CAT_ID":65201,"ELEMENT_SET_NO":999,"REV_AT_EPOCH":2822,"BSTAR":0.00095468,"MEAN_MOTION_DOT":0.00028054,"MEAN_MOTION_DDOT":0},{"OBJECT_NAME":"STARLINK-34905","OBJECT_ID":"2025-176E","EPOCH":"2026-02-05T17:17:24.823680","MEAN_MOTION":15.30239522,"ECCENTRICITY":0.0002493,"INCLINATION":53.1605,"RA_OF_ASC_NODE":301.379,"ARG_OF_PERICENTER":93.3793,"MEAN_ANOMALY":266.7493,"EPHEMERIS_TYPE":0,"CLASSIFICATION_TYPE":"U","NORAD_CAT_ID":65202,"ELEMENT_SET_NO":999,"REV_AT_EPOCH":2822,"BSTAR":0.0013351,"MEAN_MOTION_DOT":0.00039442,"MEAN_MOTION_DDOT":0},{"OBJECT_NAME":"STARLINK-34914","OBJECT_ID":"2025-176F","EPOCH":"2026-02-05T18:14:58.197120","MEAN_MOTION":15.30218287,"ECCENTRICITY":0.0001133,"INCLINATION":53.1575,"RA_OF_ASC_NODE":300.9173,"ARG_OF_PERICENTER":79.0426,"MEAN_ANOMALY":281.0702,"EPHEMERIS_TYPE":0,"CLASSIFICATION_TYPE":"U","NORAD_CAT_ID":65203,"ELEMENT_SET_NO":999,"REV_AT_EPOCH":2823,"BSTAR":2.0929e-5,"MEAN_MOTION_DOT":2.61e-6,"MEAN_MOTION_DDOT":0},{"OBJECT_NAME":"STARLINK-34787","OBJECT_ID":"2025-176G","EPOCH":"2026-02-05T03:48:45.890208","MEAN_MOTION":15.30213206,"ECCENTRICITY":8.466e-5,"INCLINATION":53.1581,"RA_OF_ASC_NODE":303.5579,"ARG_OF_PERICENTER":94.584,"MEAN_ANOMALY":265.5258,"EPHEMERIS_TYPE":0,"CLASSIFICATION_TYPE":"U","NORAD_CAT_ID":65204,"ELEMENT_SET_NO":999,"REV_AT_EPOCH":2814,"BSTAR":0.00063216241,"MEAN_MOTION_DOT":0.00018418,"MEAN_MOTION_DDOT":0},{"OBJECT_NAME":"STARLINK-34796","OBJECT_ID":"2025-176H","EPOCH":"2026-02-05T17:38:41.005248","MEAN_MOTION":15.30243319,"ECCENTRICITY":0.0001442,"INCLINATION":53.1586,"RA_OF_ASC_NODE":301.4652,"ARG_OF_PERICENTER":109.9046,"MEAN_ANOMALY":250.211,"EPHEMERIS_TYPE":0,"CLASSIFICATION_TYPE":"U","NORAD_CAT_ID":65205,"ELEMENT_SET_NO":999,"REV_AT_EPOCH":2822,"BSTAR":0.0020085,"MEAN_MOTION_DOT":0.00059686,"MEAN_MOTION_DDOT":0},{"OBJECT_NAME":"STARLINK-34763","OBJECT_ID":"2025-176J","EPOCH":"2026-02-05T18:08:54.362400","MEAN_MOTION":15.30250124,"ECCENTRICITY":0.0001036,"INCLINATION":53.1579,"RA_OF_ASC_NODE":300.8887,"ARG_OF_PERICENTER":101.592,"MEAN_ANOMALY":258.5197,"EPHEMERIS_TYPE":0,"CLASSIFICATION_TYPE":"U","NORAD_CAT_ID":65206,"ELEMENT_SET_NO":999,"REV_AT_EPOCH":2822,"BSTAR":0.0014943,"MEAN_MOTION_DOT":0.0004423,"MEAN_MOTION_DDOT":0},{"OBJECT_NAME":"STARLINK-34901","OBJECT_ID":"2025-176K","EPOCH":"2026-02-05T18:04:21.307296","MEAN_MOTION":15.30209994,"ECCENTRICITY":9.67e-5,"INCLINATION":53.1579,"RA_OF_ASC_NODE":300.8676,"ARG_OF_PERICENTER":132.57,"MEAN_ANOMALY":227.5382,"EPHEMERIS_TYPE":0,"CLASSIFICATION_TYPE":"U","NORAD_CAT_ID":65207,"ELEMENT_SET_NO":999,"REV_AT_EPOCH":2823,"BSTAR":0.001274,"MEAN_MOTION_DOT":0.00037576,"MEAN_MOTION_DDOT":0},{"OBJECT_NAME":"STARLINK-34841","OBJECT_ID":"2025-176L","EPOCH":"2026-02-05T17:08:17.621376","MEAN_MOTION":15.30237026,"ECCENTRICITY":0.0001544,"INCLINATION":53.1583,"RA_OF_ASC_NODE":301.3422,"ARG_OF_PERICENTER":86.6152,"MEAN_ANOMALY":273.5025,"EPHEMERIS_TYPE":0,"CLASSIFICATION_TYPE":"U","NORAD_CAT_ID":65208,"ELEMENT_SET_NO":999,"REV_AT_EPOCH":2822,"BSTAR":0.0014318,"MEAN_MOTION_DOT":0.00042338,"MEAN_MOTION_DDOT":0},{"OBJECT_NAME":"STARLINK-34976","OBJECT_ID":"2025-176M","EPOCH":"2026-02-05T17:37:09.773760","MEAN_MOTION":15.30249212,"ECCENTRICITY":0.0001274,"INCLINATION":53.1596,"RA_OF_ASC_NODE":301.4569,"ARG_OF_PERICENTER":107.5164,"MEAN_ANOMALY":252.5976,"EPHEMERIS_TYPE":0,"CLASSIFICATION_TYPE":"U","NORAD_CAT_ID":65209,"ELEMENT_SET_NO":999,"REV_AT_EPOCH":2822,"BSTAR":0.0017351,"MEAN_MOTION_DOT":0.00051465,"MEAN_MOTION_DDOT":0},{"OBJECT_NAME":"STARLINK-34941","OBJECT_ID":"2025-176N","EPOCH":"2026-02-05T18:05:52.145664","MEAN_MOTION":15.30257614,"ECCENTRICITY":8.25e-5,"INCLINATION":53.158,"RA_OF_ASC_NODE":300.8783,"ARG_OF_PERICENTER":110.4728,"MEAN_ANOMALY":249.6361,"EPHEMERIS_TYPE":0,"CLASSIFICATION_TYPE":"U","NORAD_CAT_ID":65210,"ELEMENT_SET_NO":999,"REV_AT_EPOCH":2823,"BSTAR":0.0020301,"MEAN_MOTION_DOT":0.00060363,"MEAN_MOTION_DDOT":0}]
