STARLINK-34926          
1 65194U 25175W   26036.64701890  .00006050  00000+0  42308-3 0  9997
2 65194  97.6022 271.1500 0002696  85.5742 274.5793 15.05653975 27791
STARLINK-34928          
1 65195U 25175X   26036.64978670  .00008104  00000+0  56506-3 0  9997
2 65195  97.6017 271.1463 0003001  73.7909 286.3648 15.05658014 27822
STARLINK-34927          
1 65196U 25175Y   26036.65534116 -.00008654  00000+0 -59690-3 0  9991
2 65196  97.6018 271.1384 0002274  92.3705 267.7782 15.05610092 27824
STARLINK-34952          
1 65197U 25175Z   26036.65255690  .00005290  00000+0  37051-3 0  9997
2 65197  97.6023 271.1424 0003080  84.1395 276.0182 15.05655617 27825
STARLINK-34981          
1 65198U 25176A   26036.77476935  .00048008  00000+0  16203-2 0  9998
2 65198  53.1587 303.8397 0001696 105.1445 254.9743 15.30246033 28196
STARLINK-34821          
1 65199U 25176B   26036.76357426  .00037728  00000+0  12777-2 0  9990
2 65199  53.1571 300.9358 0001803 113.0597 247.0594 15.30245881 28176
STARLINK-34865          
1 65200U 25176C   26036.74152978  .00049107  00000+0  16570-2 0  9995
2 65200  53.1600 301.5122 0001387  98.9976 261.1182 15.30243380 28225
STARLINK-34843          
1 65201U 25176D   26036.71936674  .00028054  00000+0  95468-3 0  9998
2 65201  53.1603 301.3699 0001104  85.9145 274.1982 15.30236057 28222
STARLINK-34905          
1 65202U 25176E   26036.72042620  .00039442  00000+0  13351-2 0  9992
2 65202  53.1605 301.3790 0002493  93.3793 266.7493 15.30239522 28225
STARLINK-34914          
1 65203U 25176F   26036.76039580  .00000261  00000+0  20929-4 0  9996
2 65203  53.1575 300.9173 0001133  79.0426 281.0702 15.30218287 28235
STARLINK-34787          
1 65204U 25176G   26036.15886447  .00018418  00000+0  63216-3 0  9990
2 65204  53.1581 303.5579 0000846  94.5840 265.5258 15.30213206 28143
STARLINK-34796          
1 65205U 25176H   26036.73519682  .00059686  00000+0  20085-2 0  9997
2 65205  53.1586 301.4652 0001442 109.9046 250.2110 15.30243319 28225
STARLINK-34763          
1 65206U 25176J   26036.75618475  .00044230  00000+0  14943-2 0  9995
2 65206  53.1579 300.8887 0001036 101.5920 258.5197 15.30250124 28227
STARLINK-34901          
1 65207U 25176K   26036.75302439  .00037576  00000+0  12740-2 0  9994
2 65207  53.1579 300.8676 0000967 132.5700 227.5382 15.30209994 28238
STARLINK-34841          
1 65208U 25176L   26036.71409284  .00042338  00000+0  14318-2 0  9992
2 65208  53.1583 301.3422 0001544  86.6152 273.5025 15.30237026 28222
STARLINK-34976          
1 65209U 25176M   26036.73414090  .00051465  00000+0  17351-2 0  9997
2 65209  53.1596 301.4569 0001274 107.5164 252.5976 15.30249212 28228
STARLINK-34941          
1 65210U 25176N   26036.75407576  .00060363  00000+0  20301-2 0  9998
2 65210  53.1580 300.8783 0000825 110.4728 249.6361 15.30257614 28235
